0 IRIDIUM 126
1 42809U 17039G   24015.04197801  .00000569  00000-0  19599-3 0  9991
2 42809  86.3976   3.1288 0002467  82.7727 277.3749 14.34219459343234
0 IRIDIUM 124
1 42810U 17039H   24014.87618789  .00000932  00000-0  27106-3 0  9993
2 42810  86.4502 299.9547 0001890  82.9752 277.1663 14.43284620347569
0 IRIDIUM 128
1 42811U 17039J   24014.54433202  .00000148  00000-0  45858-4 0  9997
2 42811  86.3953  34.8509 0002247  84.8584 275.2869 14.34215543343183
0 IRIDIUM 121
1 42812U 17039K   24014.92146937 -.00000072  00000-0 -32753-4 0  9994
2 42812  86.3973   3.2009 0002125  86.6305 273.5134 14.34218095343087
0 IRIDIUM 133
1 42955U 17061A   24015.13419647  .00000544  00000-0  18712-3 0  9992
2 42955  86.3954  34.7004 0002328  89.9075 270.2388 14.34215366328067
0 IRIDIUM 100
1 42956U 17061B   24014.56969690  .00000528  00000-0  18145-3 0  9999
2 42956  86.3952  34.8759 0002173  88.8375 271.3070 14.34212655327981
0 IRIDIUM 122
1 42957U 17061C   24014.95659970  .00000368  00000-0  12432-3 0  9995
2 42957  86.3952  34.7120 0002187  85.9846 274.1600 14.34217136328046
0 IRIDIUM 129
1 42958U 17061D   24014.56336375  .00000076  00000-0  20177-4 0  9996
2 42958  86.3952  34.9343 0002289  88.2281 271.9177 14.34214373328008
